[
    {
        "Altitude(m)": 604221.2082447995,
        "Argument of Periapsis(deg)": 0.0,
        "Eccentricity": 0.0,
        "Inclination(deg)": 60.0,
        "Latitude(deg)": 14.117268194942696,
        "Longitude(deg)": -166.66582492445391,
        "Mean Anomaly(deg)": 16.363599999999984,
        "RAAN(deg)": 285.0,
        "Satellite Name": "Test1 1255",
        "Satellite Number": 1255,
        "Semi-Major Axis(m)": 6980739.136638005,
        "Time(s)": 0
    },
    {
        "Altitude(m)": 604235.3492148857,
        "Argument of Periapsis(deg)": 0.00010418945913296404,
        "Eccentricity": 0.0,
        "Inclination(deg)": 60.0,
        "Latitude(deg)": 14.65166452647716,
        "Longitude(deg)": -166.37737711056153,
        "Mean Anomaly(deg)": 16.983706145461838,
        "RAAN(deg)": 284.9995799508602,
        "Satellite Name": "Test1 1255",
        "Satellite Number": 1255,
        "Semi-Major Axis(m)": 6980739.136638005,
        "Time(s)": 10
    }
]